*******************************************************************************
Ephemeris / WWW_USER Mon Jul 15 19:35:22 2024 Pasadena, USA      / Horizons    
*******************************************************************************
Target body name: (2015 BP519)                    {source: JPL#11}
Center body name: Earth (399)                     {source: DE441}
Center-site name: Gemini South Obs., Cerro Pachon
*******************************************************************************
Start time      : A.D. 2018-Oct-23 23:07:00.0000 UT      
Stop  time      : A.D. 2018-Oct-24 09:46:00.0000 UT      
Step-size       : 1 minutes
*******************************************************************************
Target pole/equ : undefined
Target radii    : undefined                                                    
Center geodetic : 289.2634, -30.2406227, 2.71233  {E-lon(deg),Lat(deg),Alt(km)}
Center cylindric: 289.2634,5517.21435,-3194.81213 {E-lon(deg),Dxy(km),Dz(km)}
Center pole/equ : ITRF93                          {East-longitude positive}
Center radii    : 6378.137, 6378.137, 6356.752 km {Equator_a, b, pole_c}       
Target primary  : Sun
Vis. interferer : MOON (R_eq= 1737.400) km        {source: DE441}
Rel. light bend : Sun                             {source: DE441}
Rel. lght bnd GM: 1.3271E+11 km^3/s^2                                          
Small-body perts: Yes                             {source: SB441-N16}
Atmos refraction: NO (AIRLESS)
RA format       : HMS
Time format     : CAL 
Calendar mode   : Mixed Julian/Gregorian
RTS-only print  : NO       
EOP file        : eop.240715.p241008                                           
EOP coverage    : DATA-BASED 1962-JAN-20 TO 2024-JUL-15. PREDICTS-> 2024-OCT-07
Units conversion: 1 au= 149597870.700 km, c= 299792.458 km/s, 1 day= 86400.0 s 
Table cut-offs 1: Elevation (-90.0deg=NO ),Airmass (>38.000=NO), Daylight (YES)
Table cut-offs 2: Solar elongation (  0.0,180.0=NO ),Local Hour Angle( 0.0=NO )
Table cut-offs 3: RA/DEC angular rate (     0.0=NO )                           
*******************************************************************************
Initial IAU76/J2000 heliocentric ecliptic osculating elements (au, days, deg.):
  EPOCH=  2459185.5 ! 2020-Dec-02.00 (TDB)         Residual RMS= .076636       
   EC= .9196800569382362   QR= 35.27062259520413   TP= 2473034.2681888649      
   OM= 135.0361763364557   W=  348.1354702472351   IN= 54.13300168900849       
  Equivalent ICRF heliocentric cartesian coordinates (au, au/d):
   X= 1.527332710437156E+01  Y= 4.057000090505051E+01  Z=-2.695001507835700E+01
  VX=-2.654302427537234E-03 VY= 4.512065776218028E-05 VZ= 1.968031006040699E-03
Asteroid physical parameters (km, seconds, rotational period in hours):        
   GM= n.a.                RAD= n.a.               ROTPER= n.a.                
   H= 4.34                 G= .150                 B-V= n.a.                   
                           ALBEDO= n.a.            STYP= n.a.                  
*******************************************************************************
 Date__(UT)__HR:MN     R.A._________(ICRF)_________DEC
******************************************************
$$SOE
 2018-Oct-23 23:07 Cm  04 30 41.894695 -33 29 20.32653
 2018-Oct-23 23:08 Cm  04 30 41.892304 -33 29 20.35127
 2018-Oct-23 23:09 Cm  04 30 41.889912 -33 29 20.37602
 2018-Oct-23 23:10 Cm  04 30 41.887521 -33 29 20.40076
 2018-Oct-23 23:11 Cm  04 30 41.885129 -33 29 20.42551
 2018-Oct-23 23:12 Cm  04 30 41.882737 -33 29 20.45026
 2018-Oct-23 23:13 Cm  04 30 41.880344 -33 29 20.47500
 2018-Oct-23 23:14 Cm  04 30 41.877952 -33 29 20.49975
 2018-Oct-23 23:15 Cm  04 30 41.875559 -33 29 20.52450
 2018-Oct-23 23:16 Cm  04 30 41.873166 -33 29 20.54925
 2018-Oct-23 23:17 Cm  04 30 41.870773 -33 29 20.57399
 2018-Oct-23 23:18 Cm  04 30 41.868379 -33 29 20.59874
 2018-Oct-23 23:19 Cm  04 30 41.865986 -33 29 20.62349
 2018-Oct-23 23:20 Cm  04 30 41.863592 -33 29 20.64824
 2018-Oct-23 23:21 Cr  04 30 41.861198 -33 29 20.67299
 2018-Oct-23 23:22 Cm  04 30 41.858803 -33 29 20.69774
 2018-Oct-23 23:23 Cm  04 30 41.856409 -33 29 20.72249
 2018-Oct-23 23:24 Nm  04 30 41.854014 -33 29 20.74724
 2018-Oct-23 23:25 Nm  04 30 41.851619 -33 29 20.77199
 2018-Oct-23 23:26 Nm  04 30 41.849223 -33 29 20.79674
 2018-Oct-23 23:27 Nm  04 30 41.846828 -33 29 20.82150
 2018-Oct-23 23:28 Nm  04 30 41.844432 -33 29 20.84625
 2018-Oct-23 23:29 Nm  04 30 41.842036 -33 29 20.87100
 2018-Oct-23 23:30 Nm  04 30 41.839640 -33 29 20.89575
 2018-Oct-23 23:31 Nm  04 30 41.837243 -33 29 20.92051
 2018-Oct-23 23:32 Nm  04 30 41.834847 -33 29 20.94526
 2018-Oct-23 23:33 Nm  04 30 41.832450 -33 29 20.97001
 2018-Oct-23 23:34 Nm  04 30 41.830053 -33 29 20.99477
 2018-Oct-23 23:35 Nm  04 30 41.827655 -33 29 21.01952
 2018-Oct-23 23:36 Nm  04 30 41.825257 -33 29 21.04427
 2018-Oct-23 23:37 Nm  04 30 41.822860 -33 29 21.06903
 2018-Oct-23 23:38 Nm  04 30 41.820461 -33 29 21.09378
 2018-Oct-23 23:39 Nm  04 30 41.818063 -33 29 21.11854
 2018-Oct-23 23:40 Nm  04 30 41.815664 -33 29 21.14329
 2018-Oct-23 23:41 Nm  04 30 41.813266 -33 29 21.16805
 2018-Oct-23 23:42 Nm  04 30 41.810867 -33 29 21.19281
 2018-Oct-23 23:43 Nm  04 30 41.808467 -33 29 21.21756
 2018-Oct-23 23:44 Nm  04 30 41.806068 -33 29 21.24232
 2018-Oct-23 23:45 Nm  04 30 41.803668 -33 29 21.26707
 2018-Oct-23 23:46 Nm  04 30 41.801268 -33 29 21.29183
 2018-Oct-23 23:47 Nm  04 30 41.798868 -33 29 21.31659
 2018-Oct-23 23:48 Nm  04 30 41.796467 -33 29 21.34134
 2018-Oct-23 23:49 Nm  04 30 41.794066 -33 29 21.36610
 2018-Oct-23 23:50 Nm  04 30 41.791665 -33 29 21.39086
 2018-Oct-23 23:51 Nm  04 30 41.789264 -33 29 21.41562
 2018-Oct-23 23:52 Nm  04 30 41.786863 -33 29 21.44037
 2018-Oct-23 23:53 Nm  04 30 41.784461 -33 29 21.46513
 2018-Oct-23 23:54 Am  04 30 41.782059 -33 29 21.48989
 2018-Oct-23 23:55 Am  04 30 41.779657 -33 29 21.51465
 2018-Oct-23 23:56 Am  04 30 41.777254 -33 29 21.53941
 2018-Oct-23 23:57 Am  04 30 41.774851 -33 29 21.56417
 2018-Oct-23 23:58 Am  04 30 41.772449 -33 29 21.58892
 2018-Oct-23 23:59 Am  04 30 41.770045 -33 29 21.61368
 2018-Oct-24 00:00 Am  04 30 41.767642 -33 29 21.63844
 2018-Oct-24 00:01 Am  04 30 41.765238 -33 29 21.66320
 2018-Oct-24 00:02 Am  04 30 41.762834 -33 29 21.68796
 2018-Oct-24 00:03 Am  04 30 41.760430 -33 29 21.71272
 2018-Oct-24 00:04 Am  04 30 41.758026 -33 29 21.73748
 2018-Oct-24 00:05 Am  04 30 41.755621 -33 29 21.76224
 2018-Oct-24 00:06 Am  04 30 41.753216 -33 29 21.78700
 2018-Oct-24 00:07 Am  04 30 41.750811 -33 29 21.81176
 2018-Oct-24 00:08 Am  04 30 41.748406 -33 29 21.83652
 2018-Oct-24 00:09 Am  04 30 41.746000 -33 29 21.86127
 2018-Oct-24 00:10 Am  04 30 41.743594 -33 29 21.88603
 2018-Oct-24 00:11 Am  04 30 41.741188 -33 29 21.91079
 2018-Oct-24 00:12 Am  04 30 41.738782 -33 29 21.93555
 2018-Oct-24 00:13 Am  04 30 41.736375 -33 29 21.96031
 2018-Oct-24 00:14 Am  04 30 41.733968 -33 29 21.98507
 2018-Oct-24 00:15 Am  04 30 41.731561 -33 29 22.00983
 2018-Oct-24 00:16 Am  04 30 41.729154 -33 29 22.03459
 2018-Oct-24 00:17 Am  04 30 41.726746 -33 29 22.05935
 2018-Oct-24 00:18 Am  04 30 41.724338 -33 29 22.08411
 2018-Oct-24 00:19 Am  04 30 41.721930 -33 29 22.10887
 2018-Oct-24 00:20 Am  04 30 41.719522 -33 29 22.13363
 2018-Oct-24 00:21 Am  04 30 41.717113 -33 29 22.15839
 2018-Oct-24 00:22 Am  04 30 41.714704 -33 29 22.18315
 2018-Oct-24 00:23 Am  04 30 41.712295 -33 29 22.20791
 2018-Oct-24 00:24  m  04 30 41.709886 -33 29 22.23267
 2018-Oct-24 00:25  m  04 30 41.707476 -33 29 22.25743
 2018-Oct-24 00:26  m  04 30 41.705066 -33 29 22.28219
 2018-Oct-24 00:27  m  04 30 41.702656 -33 29 22.30695
 2018-Oct-24 00:28  m  04 30 41.700246 -33 29 22.33171
 2018-Oct-24 00:29  m  04 30 41.697835 -33 29 22.35647
 2018-Oct-24 00:30  m  04 30 41.695424 -33 29 22.38123
 2018-Oct-24 00:31  m  04 30 41.693013 -33 29 22.40598
 2018-Oct-24 00:32  m  04 30 41.690602 -33 29 22.43074
 2018-Oct-24 00:33  m  04 30 41.688190 -33 29 22.45550
 2018-Oct-24 00:34  m  04 30 41.685778 -33 29 22.48026
 2018-Oct-24 00:35  m  04 30 41.683366 -33 29 22.50502
 2018-Oct-24 00:36  m  04 30 41.680954 -33 29 22.52978
 2018-Oct-24 00:37  m  04 30 41.678541 -33 29 22.55454
 2018-Oct-24 00:38  m  04 30 41.676129 -33 29 22.57929
 2018-Oct-24 00:39  m  04 30 41.673715 -33 29 22.60405
 2018-Oct-24 00:40  m  04 30 41.671302 -33 29 22.62881
 2018-Oct-24 00:41  m  04 30 41.668888 -33 29 22.65357
 2018-Oct-24 00:42  m  04 30 41.666475 -33 29 22.67833
 2018-Oct-24 00:43  m  04 30 41.664060 -33 29 22.70308
 2018-Oct-24 00:44  m  04 30 41.661646 -33 29 22.72784
 2018-Oct-24 00:45  m  04 30 41.659231 -33 29 22.75260
 2018-Oct-24 00:46  m  04 30 41.656816 -33 29 22.77735
 2018-Oct-24 00:47  m  04 30 41.654401 -33 29 22.80211
 2018-Oct-24 00:48  m  04 30 41.651986 -33 29 22.82687
 2018-Oct-24 00:49  m  04 30 41.649570 -33 29 22.85162
 2018-Oct-24 00:50  m  04 30 41.647154 -33 29 22.87638
 2018-Oct-24 00:51  m  04 30 41.644738 -33 29 22.90113
 2018-Oct-24 00:52  m  04 30 41.642322 -33 29 22.92589
 2018-Oct-24 00:53  m  04 30 41.639905 -33 29 22.95065
 2018-Oct-24 00:54  m  04 30 41.637488 -33 29 22.97540
 2018-Oct-24 00:55  m  04 30 41.635071 -33 29 23.00016
 2018-Oct-24 00:56  m  04 30 41.632654 -33 29 23.02491
 2018-Oct-24 00:57  m  04 30 41.630236 -33 29 23.04966
 2018-Oct-24 00:58  m  04 30 41.627818 -33 29 23.07442
 2018-Oct-24 00:59  m  04 30 41.625400 -33 29 23.09917
 2018-Oct-24 01:00  m  04 30 41.622982 -33 29 23.12393
 2018-Oct-24 01:01  m  04 30 41.620563 -33 29 23.14868
 2018-Oct-24 01:02  m  04 30 41.618144 -33 29 23.17343
 2018-Oct-24 01:03  m  04 30 41.615725 -33 29 23.19818
 2018-Oct-24 01:04  m  04 30 41.613305 -33 29 23.22294
 2018-Oct-24 01:05  m  04 30 41.610886 -33 29 23.24769
 2018-Oct-24 01:06  m  04 30 41.608466 -33 29 23.27244
 2018-Oct-24 01:07  m  04 30 41.606045 -33 29 23.29719
 2018-Oct-24 01:08  m  04 30 41.603625 -33 29 23.32194
 2018-Oct-24 01:09  m  04 30 41.601204 -33 29 23.34669
